[
  {
    "CCSDS_OMM_VERS": "3.0",
    "COMMENT": "GENERATED VIA SPACE-TRACK.ORG API",
    "CREATION_DATE": "2026-02-19T18:56:29",
    "ORIGINATOR": "18 SPCS",
    "OBJECT_NAME": "COSMOS 2572",
    "OBJECT_ID": "2023-182A",
    "CENTER_NAME": "EARTH",
    "REF_FRAME": "TEME",
    "TIME_SYSTEM": "UTC",
    "MEAN_ELEMENT_THEORY": "SGP4",
    "EPOCH": "2026-02-19T18:01:23.945376",
    "MEAN_MOTION": "15.90119252",
    "ECCENTRICITY": "0.00132820",
    "INCLINATION": "96.6823",
    "RA_OF_ASC_NODE": "156.7091",
    "ARG_OF_PERICENTER": "216.3213",
    "MEAN_ANOMALY": "143.7162",
    "EPHEMERIS_TYPE": "0",
    "CLASSIFICATION_TYPE": "U",
    "NORAD_CAT_ID": "58435",
    "ELEMENT_SET_NO": "999",
    "REV_AT_EPOCH": "12979",
    "BSTAR": "0.00040772000000",
    "MEAN_MOTION_DOT": "0.00122320",
    "MEAN_MOTION_DDOT": "0.0000071847000",
    "SEMIMAJOR_AXIS": "6680.086",
    "PERIOD": "90.559",
    "APOAPSIS": "310.823",
    "PERIAPSIS": "293.078",
    "OBJECT_TYPE": "PAYLOAD",
    "RCS_SIZE": "LARGE",
    "COUNTRY_CODE": "CIS",
    "LAUNCH_DATE": "2023-11-25",
    "SITE": "PKMTR",
    "DECAY_DATE": null,
    "FILE": "5039990",
    "GP_ID": "313187971",
    "TLE_LINE0": "0 COSMOS 2572",
    "TLE_LINE1": "1 58435U 23182A   26050.75097159  .00122320  71847-5  40772-3 0  9992",
    "TLE_LINE2": "2 58435  96.6823 156.7091 0013282 216.3213 143.7162 15.90119252129791"
  },
  {
    "CCSDS_OMM_VERS": "3.0",
    "COMMENT": "GENERATED VIA SPACE-TRACK.ORG API",
    "CREATION_DATE": "2026-02-19T19:26:28",
    "ORIGINATOR": "18 SPCS",
    "OBJECT_NAME": "COSMOS 2579",
    "OBJECT_ID": "2024-197A",
    "CENTER_NAME": "EARTH",
    "REF_FRAME": "TEME",
    "TIME_SYSTEM": "UTC",
    "MEAN_ELEMENT_THEORY": "SGP4",
    "EPOCH": "2026-02-19T17:19:59.082240",
    "MEAN_MOTION": "15.26613014",
    "ECCENTRICITY": "0.00021170",
    "INCLINATION": "97.5579",
    "RA_OF_ASC_NODE": "333.6726",
    "ARG_OF_PERICENTER": "36.9264",
    "MEAN_ANOMALY": "323.2120",
    "EPHEMERIS_TYPE": "0",
    "CLASSIFICATION_TYPE": "U",
    "NORAD_CAT_ID": "61730",
    "ELEMENT_SET_NO": "999",
    "REV_AT_EPOCH": "7257",
    "BSTAR": "0.00018819000000",
    "MEAN_MOTION_DOT": "0.00004853",
    "MEAN_MOTION_DDOT": "0.0000000000000",
    "SEMIMAJOR_AXIS": "6864.083",
    "PERIOD": "94.326",
    "APOAPSIS": "487.401",
    "PERIAPSIS": "484.495",
    "OBJECT_TYPE": "PAYLOAD",
    "RCS_SIZE": "LARGE",
    "COUNTRY_CODE": "CIS",
    "LAUNCH_DATE": "2024-10-31",
    "SITE": "PKMTR",
    "DECAY_DATE": null,
    "FILE": "5040001",
    "GP_ID": "313188017",
    "TLE_LINE0": "0 COSMOS 2579",
    "TLE_LINE1": "1 61730U 24197A   26050.72221160  .00004853  00000-0  18819-3 0  9994",
    "TLE_LINE2": "2 61730  97.5579 333.6726 0002117  36.9264 323.2120 15.26613014 72575"
  },
  {
    "CCSDS_OMM_VERS": "3.0",
    "COMMENT": "GENERATED VIA SPACE-TRACK.ORG API",
    "CREATION_DATE": "2026-02-19T19:06:29",
    "ORIGINATOR": "18 SPCS",
    "OBJECT_NAME": "YAOGAN-42 02",
    "OBJECT_ID": "2024-075A",
    "CENTER_NAME": "EARTH",
    "REF_FRAME": "TEME",
    "TIME_SYSTEM": "UTC",
    "MEAN_ELEMENT_THEORY": "SGP4",
    "EPOCH": "2026-02-19T16:56:24.823968",
    "MEAN_MOTION": "15.22788201",
    "ECCENTRICITY": "0.00052870",
    "INCLINATION": "35.0012",
    "RA_OF_ASC_NODE": "288.4259",
    "ARG_OF_PERICENTER": "199.3397",
    "MEAN_ANOMALY": "160.7117",
    "EPHEMERIS_TYPE": "0",
    "CLASSIFICATION_TYPE": "U",
    "NORAD_CAT_ID": "59557",
    "ELEMENT_SET_NO": "999",
    "REV_AT_EPOCH": "10216",
    "BSTAR": "0.00021260000000",
    "MEAN_MOTION_DOT": "0.00005058",
    "MEAN_MOTION_DDOT": "0.0000000000000",
    "SEMIMAJOR_AXIS": "6875.572",
    "PERIOD": "94.563",
    "APOAPSIS": "501.072",
    "PERIAPSIS": "493.802",
    "OBJECT_TYPE": "PAYLOAD",
    "RCS_SIZE": "LARGE",
    "COUNTRY_CODE": "PRC",
    "LAUNCH_DATE": "2024-04-20",
    "SITE": "XSC",
    "DECAY_DATE": null,
    "FILE": "5039994",
    "GP_ID": "313187978",
    "TLE_LINE0": "0 YAOGAN-42 02",
    "TLE_LINE1": "1 59557U 24075A   26050.70584287  .00005058  00000-0  21260-3 0  9995",
    "TLE_LINE2": "2 59557  35.0012 288.4259 0005287 199.3397 160.7117 15.22788201102164"
  },
  {
    "CCSDS_OMM_VERS": "3.0",
    "COMMENT": "GENERATED VIA SPACE-TRACK.ORG API",
    "CREATION_DATE": "2026-02-19T19:16:27",
    "ORIGINATOR": "18 SPCS",
    "OBJECT_NAME": "SHIYAN 32-03",
    "OBJECT_ID": "2025-255D",
    "CENTER_NAME": "EARTH",
    "REF_FRAME": "TEME",
    "TIME_SYSTEM": "UTC",
    "MEAN_ELEMENT_THEORY": "SGP4",
    "EPOCH": "2026-02-19T16:52:07.063392",
    "MEAN_MOTION": "15.39630616",
    "ECCENTRICITY": "0.00103410",
    "INCLINATION": "52.9950",
    "RA_OF_ASC_NODE": "211.3187",
    "ARG_OF_PERICENTER": "161.1369",
    "MEAN_ANOMALY": "199.0018",
    "EPHEMERIS_TYPE": "0",
    "CLASSIFICATION_TYPE": "U",
    "NORAD_CAT_ID": "66379",
    "ELEMENT_SET_NO": "999",
    "REV_AT_EPOCH": "1586",
    "BSTAR": "0.00033880000000",
    "MEAN_MOTION_DOT": "0.00013199",
    "MEAN_MOTION_DDOT": "0.0000000000000",
    "SEMIMAJOR_AXIS": "6825.338",
    "PERIOD": "93.529",
    "APOAPSIS": "454.261",
    "PERIAPSIS": "440.145",
    "OBJECT_TYPE": "PAYLOAD",
    "RCS_SIZE": null,
    "COUNTRY_CODE": "PRC",
    "LAUNCH_DATE": "2025-11-08",
    "SITE": "YSLA",
    "DECAY_DATE": null,
    "FILE": "5039997",
    "GP_ID": "313188012",
    "TLE_LINE0": "0 SHIYAN 32-03",
    "TLE_LINE1": "1 66379U 25255D   26050.70285953  .00013199  00000-0  33880-3 0  9990",
    "TLE_LINE2": "2 66379  52.9950 211.3187 0010341 161.1369 199.0018 15.39630616 15860"
  },
  {
    "CCSDS_OMM_VERS": "3.0",
    "COMMENT": "GENERATED VIA SPACE-TRACK.ORG API",
    "CREATION_DATE": "2026-02-19T19:16:27",
    "ORIGINATOR": "18 SPCS",
    "OBJECT_NAME": "SHIYAN 32-02",
    "OBJECT_ID": "2025-255C",
    "CENTER_NAME": "EARTH",
    "REF_FRAME": "TEME",
    "TIME_SYSTEM": "UTC",
    "MEAN_ELEMENT_THEORY": "SGP4",
    "EPOCH": "2026-02-19T16:51:55.551456",
    "MEAN_MOTION": "15.39654548",
    "ECCENTRICITY": "0.00095910",
    "INCLINATION": "52.9931",
    "RA_OF_ASC_NODE": "211.2931",
    "ARG_OF_PERICENTER": "169.0354",
    "MEAN_ANOMALY": "191.0859",
    "EPHEMERIS_TYPE": "0",
    "CLASSIFICATION_TYPE": "U",
    "NORAD_CAT_ID": "66378",
    "ELEMENT_SET_NO": "999",
    "REV_AT_EPOCH": "1584",
    "BSTAR": "0.00042247000000",
    "MEAN_MOTION_DOT": "0.00016576",
    "MEAN_MOTION_DDOT": "0.0000000000000",
    "SEMIMAJOR_AXIS": "6825.267",
    "PERIOD": "93.527",
    "APOAPSIS": "453.678",
    "PERIAPSIS": "440.586",
    "OBJECT_TYPE": "PAYLOAD",
    "RCS_SIZE": null,
    "COUNTRY_CODE": "PRC",
    "LAUNCH_DATE": "2025-11-08",
    "SITE": "YSLA",
    "DECAY_DATE": null,
    "FILE": "5039997",
    "GP_ID": "313187995",
    "TLE_LINE0": "0 SHIYAN 32-02",
    "TLE_LINE1": "1 66378U 25255C   26050.70272629  .00016576  00000-0  42247-3 0  9994",
    "TLE_LINE2": "2 66378  52.9931 211.2931 0009591 169.0354 191.0859 15.39654548 15843"
  },
  {
    "CCSDS_OMM_VERS": "3.0",
    "COMMENT": "GENERATED VIA SPACE-TRACK.ORG API",
    "CREATION_DATE": "2026-02-19T18:06:43",
    "ORIGINATOR": "18 SPCS",
    "OBJECT_NAME": "KONDOR FKA 1",
    "OBJECT_ID": "2023-074A",
    "CENTER_NAME": "EARTH",
    "REF_FRAME": "TEME",
    "TIME_SYSTEM": "UTC",
    "MEAN_ELEMENT_THEORY": "SGP4",
    "EPOCH": "2026-02-19T16:32:21.577632",
    "MEAN_MOTION": "15.19684868",
    "ECCENTRICITY": "0.00018030",
    "INCLINATION": "97.4389",
    "RA_OF_ASC_NODE": "246.9406",
    "ARG_OF_PERICENTER": "88.5658",
    "MEAN_ANOMALY": "271.5783",
    "EPHEMERIS_TYPE": "0",
    "CLASSIFICATION_TYPE": "U",
    "NORAD_CAT_ID": "56756",
    "ELEMENT_SET_NO": "999",
    "REV_AT_EPOCH": "15184",
    "BSTAR": "0.00012056000000",
    "MEAN_MOTION_DOT": "0.00002505",
    "MEAN_MOTION_DDOT": "0.0000000000000",
    "SEMIMAJOR_AXIS": "6884.929",
    "PERIOD": "94.756",
    "APOAPSIS": "508.036",
    "PERIAPSIS": "505.553",
    "OBJECT_TYPE": "PAYLOAD",
    "RCS_SIZE": "LARGE",
    "COUNTRY_CODE": "CIS",
    "LAUNCH_DATE": "2023-05-26",
    "SITE": "VOSTO",
    "DECAY_DATE": null,
    "FILE": "5039975",
    "GP_ID": "313187953",
    "TLE_LINE0": "0 KONDOR FKA 1",
    "TLE_LINE1": "1 56756U 23074A   26050.68913863  .00002505  00000-0  12056-3 0  9991",
    "TLE_LINE2": "2 56756  97.4389 246.9406 0001803  88.5658 271.5783 15.19684868151842"
  },
  {
    "CCSDS_OMM_VERS": "3.0",
    "COMMENT": "GENERATED VIA SPACE-TRACK.ORG API",
    "CREATION_DATE": "2026-02-19T19:16:27",
    "ORIGINATOR": "18 SPCS",
    "OBJECT_NAME": "COSMOS 2588",
    "OBJECT_ID": "2025-109A",
    "CENTER_NAME": "EARTH",
    "REF_FRAME": "TEME",
    "TIME_SYSTEM": "UTC",
    "MEAN_ELEMENT_THEORY": "SGP4",
    "EPOCH": "2026-02-19T16:29:55.368960",
    "MEAN_MOTION": "15.28771915",
    "ECCENTRICITY": "0.00040340",
    "INCLINATION": "72.9708",
    "RA_OF_ASC_NODE": "114.5563",
    "ARG_OF_PERICENTER": "338.0893",
    "MEAN_ANOMALY": "22.0129",
    "EPHEMERIS_TYPE": "0",
    "CLASSIFICATION_TYPE": "U",
    "NORAD_CAT_ID": "64095",
    "ELEMENT_SET_NO": "999",
    "REV_AT_EPOCH": "4165",
    "BSTAR": "0.00032508000000",
    "MEAN_MOTION_DOT": "0.00009041",
    "MEAN_MOTION_DDOT": "0.0000000000000",
    "SEMIMAJOR_AXIS": "6857.619",
    "PERIOD": "94.193",
    "APOAPSIS": "482.251",
    "PERIAPSIS": "476.718",
    "OBJECT_TYPE": "PAYLOAD",
    "RCS_SIZE": "LARGE",
    "COUNTRY_CODE": "CIS",
    "LAUNCH_DATE": "2025-05-23",
    "SITE": "PKMTR",
    "DECAY_DATE": null,
    "FILE": "5039997",
    "GP_ID": "313187993",
    "TLE_LINE0": "0 COSMOS 2588",
    "TLE_LINE1": "1 64095U 25109A   26050.68744640  .00009041  00000-0  32508-3 0  9998",
    "TLE_LINE2": "2 64095  72.9708 114.5563 0004034 338.0893  22.0129 15.28771915 41657"
  }
]